{"type":"FeatureCollection","crs":{"Name":"urn:ogc:def:crs:EPSG::3857","type":"name","properties":{"name":"urn:ogc:def:crs:EPSG::3857"}},"name":"landmarks","features":[{"type":"Feature","properties":{"type":"Base","label":"Pepevog\n— In Distant Lands — \n               <3","z":113},"geometry":{"type":"Point","coordinates":[-511996,511999]}},{"type":"Feature","properties":{"type":"Base","label":"Point\nNorth","z":111},"geometry":{"type":"Point","coordinates":[0,512000]}},{"type":"Feature","properties":{"type":"Base","label":"Point \nNorth-East","z":114},"geometry":{"type":"Point","coordinates":[512002,512000]}},{"type":"Feature","properties":{"type":"Base","label":"Arcadia","z":113},"geometry":{"type":"Point","coordinates":[9559,49546]}},{"type":"Feature","properties":{"type":"Base","label":"90° (Pole), North of Spawn\n-Aelus","z":103},"geometry":{"type":"Point","coordinates":[0,47376]}},{"type":"Feature","properties":{"type":"Base","label":"Oscillascape's\nNorth Pole\nResearch Station","z":118},"geometry":{"type":"Point","coordinates":[323,47585]}},{"type":"Feature","properties":{"type":"Base","label":"Whitewater\n-Edward Dreamer","z":110},"geometry":{"type":"Point","coordinates":[759,41268]}},{"type":"Feature","properties":{"type":"Misc","label":"Point Pleasant\n-Edward Dreamer","z":247},"geometry":{"type":"Point","coordinates":[1559,32825]}},{"type":"Feature","properties":{"type":"Base","label":"Trader.Artisian","z":111},"geometry":{"type":"Point","coordinates":[-9600,26004]}},{"type":"Feature","properties":{"type":"Base","label":"Trader.Builder","z":108},"geometry":{"type":"Point","coordinates":[-10109,26508]}},{"type":"Feature","properties":{"type":"Base","label":"Nordlichtfeste","z":113},"geometry":{"type":"Point","coordinates":[10516,25770]}},{"type":"Feature","properties":{"type":"Base","label":"Trader.BuildingMaterials","z":111},"geometry":{"type":"Point","coordinates":[12544,25779]}},{"type":"Feature","properties":{"type":"Misc","label":"Cloudberry's Edge","z":125},"geometry":{"type":"Point","coordinates":[-511997,23404]}},{"type":"Feature","properties":{"type":"Base","label":"Biome.BasaltGravel","z":140},"geometry":{"type":"Point","coordinates":[26448,19433]}},{"type":"Feature","properties":{"type":"Base","label":"Trader.Luxuries","z":110},"geometry":{"type":"Point","coordinates":[26973,19071]}},{"type":"Feature","properties":{"type":"Base","label":"Trader.BuildingMaterials","z":115},"geometry":{"type":"Point","coordinates":[21327,15240]}},{"type":"Feature","properties":{"type":"Base","label":"Trader.Commodities","z":113},"geometry":{"type":"Point","coordinates":[-3923,13610]}},{"type":"Feature","properties":{"type":"Base","label":"Trader.Furniture","z":112},"geometry":{"type":"Point","coordinates":[-5981,11784]}},{"type":"Feature","properties":{"type":"Base","label":"Trader.Survival","z":111},"geometry":{"type":"Point","coordinates":[10223,12194]}},{"type":"Feature","properties":{"type":"Base","label":"Center of the World\n-Aelus","z":118},"geometry":{"type":"Point","coordinates":[-11997,12000]}},{"type":"Feature","properties":{"type":"Base","label":"Trader.Treassure","z":113},"geometry":{"type":"Point","coordinates":[-5742,11228]}},{"type":"Feature","properties":{"type":"Base","label":"Trader.Tailor","z":113},"geometry":{"type":"Point","coordinates":[-6177,10719]}},{"type":"Feature","properties":{"type":"Base","label":"Trader.Artisian","z":112},"geometry":{"type":"Point","coordinates":[-6796,10757]}},{"type":"Feature","properties":{"type":"Misc","label":"Vacant Longhouse\nfeel free to use","z":112},"geometry":{"type":"Point","coordinates":[-2326,9590]}},{"type":"Feature","properties":{"type":"Base","label":"Zadak Springs","z":137},"geometry":{"type":"Point","coordinates":[1249,9280]}},{"type":"Feature","properties":{"type":"Base","label":"Frost Peak\nTIE, Lil, Tab","z":118},"geometry":{"type":"Point","coordinates":[210,7885]}},{"type":"Feature","properties":{"type":"Misc","label":"The Tab Cave","z":123},"geometry":{"type":"Point","coordinates":[380,7860]}},{"type":"Feature","properties":{"type":"Base","label":"Byrtenfell \nThe Boreal Battle Bastion of Byrt","z":133},"geometry":{"type":"Point","coordinates":[14390,7189]}},{"type":"Feature","properties":{"type":"Base","label":"- Княжество Берло -\n- Bearlo Princedom -","z":111},"geometry":{"type":"Point","coordinates":[2866,6510]}},{"type":"Feature","properties":{"type":"Base","label":"Tologh Base","z":114},"geometry":{"type":"Point","coordinates":[16284,6287]}},{"type":"Feature","properties":{"type":"Base","label":"Stever-Dolan Ranch\n~Est '26","z":116},"geometry":{"type":"Point","coordinates":[-4665,5273]}},{"type":"Feature","properties":{"type":"Base","label":"Trader.Furniture","z":112},"geometry":{"type":"Point","coordinates":[-3494,5339]}},{"type":"Feature","properties":{"type":"Base","label":"Trader.Tailor","z":108},"geometry":{"type":"Point","coordinates":[-2847,5734]}},{"type":"Feature","properties":{"type":"Base","label":"Ostland Commonwealth","z":169},"geometry":{"type":"Point","coordinates":[7568,5278]}},{"type":"Feature","properties":{"type":"Base","label":"Trader.Tailor","z":118},"geometry":{"type":"Point","coordinates":[-2503,4985]}},{"type":"Feature","properties":{"type":"Base","label":"Drevlian Village\n/MihaPrikol, nerle, Bobot/","z":107},"geometry":{"type":"Point","coordinates":[-260,5455]}},{"type":"Feature","properties":{"type":"Base","label":"Trader.Builder","z":108},"geometry":{"type":"Point","coordinates":[-1953,4688]}},{"type":"Feature","properties":{"type":"Base","label":"Trader.Agriculture","z":121},"geometry":{"type":"Point","coordinates":[-2842,4456]}},{"type":"Feature","properties":{"type":"Misc","label":"Rooster Island \nPublic Shelter\n(Town)","z":113},"geometry":{"type":"Point","coordinates":[1042,3920]}},{"type":"Feature","properties":{"type":"Misc","label":"Public terminus","z":142},"geometry":{"type":"Point","coordinates":[2562,3971]}},{"type":"Feature","properties":{"type":"Base","label":"Seksownakaczka\n&\nMather","z":145},"geometry":{"type":"Point","coordinates":[2586,3943]}},{"type":"Feature","properties":{"type":"Misc","label":"Rooster Island\nPublic Shelter\n(Highway)","z":117},"geometry":{"type":"Point","coordinates":[-9,3772]}},{"type":"Feature","properties":{"type":"Base","label":"DaringWorm's Ranch;\nVisitors Welcome!","z":110},"geometry":{"type":"Point","coordinates":[5127,3333]}},{"type":"Feature","properties":{"type":"Misc","label":"Rooster Island\nLookout Point","z":134},"geometry":{"type":"Point","coordinates":[1019,3780]}},{"type":"Feature","properties":{"type":"Base","label":"Rooster Island","z":110},"geometry":{"type":"Point","coordinates":[1121,3814]}},{"type":"Feature","properties":{"type":"Misc","label":"building materials trader","z":114},"geometry":{"type":"Point","coordinates":[13782,2582]}},{"type":"Feature","properties":{"type":"Misc","label":"luxuries trader","z":119},"geometry":{"type":"Point","coordinates":[14429,2774]}},{"type":"Feature","properties":{"type":"Base","label":"MOSES\nIRON\nWORKS","z":117},"geometry":{"type":"Point","coordinates":[-3795,3189]}},{"type":"Feature","properties":{"type":"Base","label":"Saricane","z":114},"geometry":{"type":"Point","coordinates":[2024,3267]}},{"type":"Feature","properties":{"type":"Base","label":"Mouchi's\nSpawn\nOutpost","z":138},"geometry":{"type":"Point","coordinates":[2166,3126]}},{"type":"Feature","properties":{"type":"Base","label":"Alegara & Hayabusafx","z":111},"geometry":{"type":"Point","coordinates":[-1991,3054]}},{"type":"Feature","properties":{"type":"Base","label":"Trader Furniture","z":109},"geometry":{"type":"Point","coordinates":[-112,2824]}},{"type":"Feature","properties":{"type":"Base","label":"Matcha Pond","z":104},"geometry":{"type":"Point","coordinates":[-78,2756]}},{"type":"Feature","properties":{"type":"Base","label":"Midori Town","z":112},"geometry":{"type":"Point","coordinates":[-131,2690]}},{"type":"Feature","properties":{"type":"Base","label":"WineWood","z":125},"geometry":{"type":"Point","coordinates":[-1760,2454]}},{"type":"Feature","properties":{"type":"Base","label":"~North SafeHub~","z":113},"geometry":{"type":"Point","coordinates":[-848,2229]}},{"type":"Feature","properties":{"type":"Base","label":"Afili's Workshop","z":108},"geometry":{"type":"Point","coordinates":[-809,2198]}},{"type":"Feature","properties":{"type":"Base","label":"Donut Mountain","z":120},"geometry":{"type":"Point","coordinates":[-23342,2543]}},{"type":"Feature","properties":{"type":"Base","label":"New Gettysburg","z":117},"geometry":{"type":"Point","coordinates":[-24779,2057]}},{"type":"Feature","properties":{"type":"Misc","label":"furniture trader","z":112},"geometry":{"type":"Point","coordinates":[12964,2286]}},{"type":"Feature","properties":{"type":"Base","label":"TL to SPAWN","z":116},"geometry":{"type":"Point","coordinates":[7078,1666]}},{"type":"Feature","properties":{"type":"Misc","label":"treasure trader","z":117},"geometry":{"type":"Point","coordinates":[13564,2009]}},{"type":"Feature","properties":{"type":"Base","label":"Chalcedony Coast","z":112},"geometry":{"type":"Point","coordinates":[-22597,1510]}},{"type":"Feature","properties":{"type":"Base","label":"lake calm","z":113},"geometry":{"type":"Point","coordinates":[13259,1733]}},{"type":"Feature","properties":{"type":"Base","label":"New Constantinople\nPARAGON of the west\nByzantine Empire","z":114},"geometry":{"type":"Point","coordinates":[-8758,1937]}},{"type":"Feature","properties":{"type":"Misc","label":"commodities trader","z":114},"geometry":{"type":"Point","coordinates":[12701,1338]}},{"type":"Feature","properties":{"type":"Misc","label":"agri trader","z":120},"geometry":{"type":"Point","coordinates":[13397,1410]}},{"type":"Feature","properties":{"type":"Base","label":"Morwynstead","z":108},"geometry":{"type":"Point","coordinates":[-19196,1256]}},{"type":"Feature","properties":{"type":"Base","label":"Stoat","z":108},"geometry":{"type":"Point","coordinates":[-2862,1450]}},{"type":"Feature","properties":{"type":"Base","label":"Trader.commodities","z":110},"geometry":{"type":"Point","coordinates":[1982,778]}},{"type":"Feature","properties":{"type":"Base","label":"Silly Goat Tavern\n(publick safe house)\nfood, light, heat","z":109},"geometry":{"type":"Point","coordinates":[6431,1459]}},{"type":"Feature","properties":{"type":"Base","label":"Marutanielle\nFarm","z":110},"geometry":{"type":"Point","coordinates":[6460,1429]}},{"type":"Feature","properties":{"type":"Misc","label":"WilliamAcuerdo's Burrow","z":127},"geometry":{"type":"Point","coordinates":[-1727,1195]}},{"type":"Feature","properties":{"type":"Base","label":"Sandwich","z":114},"geometry":{"type":"Point","coordinates":[-1746,1030]}},{"type":"Feature","properties":{"type":"Base","label":"Irongrave","z":122},"geometry":{"type":"Point","coordinates":[-416,1115]}},{"type":"Feature","properties":{"type":"Base","label":"Capstone\nConvention\nCenter","z":108},"geometry":{"type":"Point","coordinates":[-441,596]}},{"type":"Feature","properties":{"type":"Base","label":"Gramendale","z":115},"geometry":{"type":"Point","coordinates":[-2648,960]}},{"type":"Feature","properties":{"type":"Base","label":"TL to \nMarutanielle Farm","z":117},"geometry":{"type":"Point","coordinates":[232,790]}},{"type":"Feature","properties":{"type":"Base","label":"The\nRanderson\nEstate","z":128},"geometry":{"type":"Point","coordinates":[1779,799]}},{"type":"Feature","properties":{"type":"Base","label":"Hot Spring\nPeninsula","z":113},"geometry":{"type":"Point","coordinates":[-18688,736]}},{"type":"Feature","properties":{"type":"Base","label":"Rendule's Rest","z":119},"geometry":{"type":"Point","coordinates":[-2814,422]}},{"type":"Feature","properties":{"type":"Base","label":"Sergios","z":112},"geometry":{"type":"Point","coordinates":[1218,382]}},{"type":"Feature","properties":{"type":"Base","label":"Trader.treasure_hunter","z":112},"geometry":{"type":"Point","coordinates":[1339,381]}},{"type":"Feature","properties":{"type":"Base","label":"Basalt Springs","z":113},"geometry":{"type":"Point","coordinates":[21915,447]}},{"type":"Feature","properties":{"type":"Base","label":"~West SafeHub~","z":117},"geometry":{"type":"Point","coordinates":[-772,71]}},{"type":"Feature","properties":{"type":"Base","label":"JurekKiller","z":153},"geometry":{"type":"Point","coordinates":[1348,94]}},{"type":"Feature","properties":{"type":"Misc","label":"Springwatch Tower","z":224},"geometry":{"type":"Point","coordinates":[1418,84]}},{"type":"Feature","properties":{"type":"Base","label":"Point West","z":110},"geometry":{"type":"Point","coordinates":[-511997,0]}},{"type":"Feature","properties":{"type":"Base","label":"Three Crown's Crossing","z":125},"geometry":{"type":"Point","coordinates":[-12203,66]}},{"type":"Feature","properties":{"type":"Base","label":"Point East","z":114},"geometry":{"type":"Point","coordinates":[512002,0]}},{"type":"Feature","properties":{"type":"Misc","label":"Blackwing trading\nterminal","z":109},"geometry":{"type":"Point","coordinates":[13700,-135]}},{"type":"Feature","properties":{"type":"Base","label":"White Harbor","z":111},"geometry":{"type":"Point","coordinates":[-17859,-25]}},{"type":"Feature","properties":{"type":"Base","label":"Domain of Jonny the Boastful","z":106},"geometry":{"type":"Point","coordinates":[-10800,0]}},{"type":"Feature","properties":{"type":"Misc","label":"Public\nWestwald Tavern","z":121},"geometry":{"type":"Point","coordinates":[-5259,-152]}},{"type":"Feature","properties":{"type":"Base","label":"Barony of Westwald","z":112},"geometry":{"type":"Point","coordinates":[-5240,-211]}},{"type":"Feature","properties":{"type":"Base","label":"Autobahn AG \n(West Infrastructure HQ)","z":161},"geometry":{"type":"Point","coordinates":[-4996,0]}},{"type":"Feature","properties":{"type":"Base","label":"~Perch Point~","z":109},"geometry":{"type":"Point","coordinates":[-1067,-19]}},{"type":"Feature","properties":{"type":"Server","label":"Spawn","z":119},"geometry":{"type":"Point","coordinates":[0,0]}},{"type":"Feature","properties":{"type":"Base","label":"~East SafeHab~","z":121},"geometry":{"type":"Point","coordinates":[910,-59]}},{"type":"Feature","properties":{"type":"Base","label":"Goon lagoon","z":113},"geometry":{"type":"Point","coordinates":[22657,-457]}},{"type":"Feature","properties":{"type":"Misc","label":"West Elk Corridor Tunnel\nWaypoint 9","z":128},"geometry":{"type":"Point","coordinates":[-4751,-361]}},{"type":"Feature","properties":{"type":"Base","label":"Fig Valley Ranch","z":110},"geometry":{"type":"Point","coordinates":[-508,-511]}},{"type":"Feature","properties":{"type":"Misc","label":"Lake 4K\nSmithy","z":105},"geometry":{"type":"Point","coordinates":[-4363,-525]}},{"type":"Feature","properties":{"type":"Misc","label":"Lake 4K Group\nCellar","z":108},"geometry":{"type":"Point","coordinates":[-4362,-513]}},{"type":"Feature","properties":{"type":"Misc","label":"Lake 4K\nFurnace House","z":108},"geometry":{"type":"Point","coordinates":[-4372,-549]}},{"type":"Feature","properties":{"type":"Base","label":"Lake 4K","z":108},"geometry":{"type":"Point","coordinates":[-4349,-523]}},{"type":"Feature","properties":{"type":"Misc","label":"Lake 4k's Public\nFarm Area","z":108},"geometry":{"type":"Point","coordinates":[-4251,-523]}},{"type":"Feature","properties":{"type":"Misc","label":"Lake 4K Alderman's\nResidence","z":109},"geometry":{"type":"Point","coordinates":[-4346,-591]}},{"type":"Feature","properties":{"type":"Base","label":"The Shivering Sea","z":113},"geometry":{"type":"Point","coordinates":[-19625,-447]}},{"type":"Feature","properties":{"type":"Base","label":"Port Emerald","z":120},"geometry":{"type":"Point","coordinates":[-22240,-882]}},{"type":"Feature","properties":{"type":"Base","label":"Bilborf's Serene Valley Adventure","z":110},"geometry":{"type":"Point","coordinates":[-350,-580]}},{"type":"Feature","properties":{"type":"Base","label":"~South SafeHub~","z":160},"geometry":{"type":"Point","coordinates":[-53,-565]}},{"type":"Feature","properties":{"type":"Misc","label":"Lake Eastmere","z":108},"geometry":{"type":"Point","coordinates":[1460,-580]}},{"type":"Feature","properties":{"type":"Base","label":"Trader.Furniture","z":121},"geometry":{"type":"Point","coordinates":[15749,-877]}},{"type":"Feature","properties":{"type":"Base","label":"The Trashy Cove","z":113},"geometry":{"type":"Point","coordinates":[-17725,-1052]}},{"type":"Feature","properties":{"type":"Base","label":"Starpyke","z":108},"geometry":{"type":"Point","coordinates":[-7224,-823]}},{"type":"Feature","properties":{"type":"Base","label":"Eric960430's Homestead","z":115},"geometry":{"type":"Point","coordinates":[-5530,-1151]}},{"type":"Feature","properties":{"type":"Base","label":"Starfall\nPublic Forge","z":116},"geometry":{"type":"Point","coordinates":[-212,-1011]}},{"type":"Feature","properties":{"type":"Base","label":"Leaking Pines","z":117},"geometry":{"type":"Point","coordinates":[-1764,-1383]}},{"type":"Feature","properties":{"type":"Base","label":"Trader.Adventurer","z":114},"geometry":{"type":"Point","coordinates":[1882,-842]}},{"type":"Feature","properties":{"type":"Base","label":"CHURCH OF DAVE\nDONATIONS NEEDED\nFOR CONSTRUCTION","z":119},"geometry":{"type":"Point","coordinates":[-5,-1474]}},{"type":"Feature","properties":{"type":"Base","label":"Honorguard Castle","z":122},"geometry":{"type":"Point","coordinates":[162,-1376]}},{"type":"Feature","properties":{"type":"Base","label":"Central Transit Hub\nConnects South, West, Nadiya, more!","z":110},"geometry":{"type":"Point","coordinates":[351,-1314]}},{"type":"Feature","properties":{"type":"Base","label":"Dave's Mercy\nFree food and shelter","z":121},"geometry":{"type":"Point","coordinates":[10,-1258]}},{"type":"Feature","properties":{"type":"Base","label":"Trader.Lux","z":115},"geometry":{"type":"Point","coordinates":[-515,-1862]}},{"type":"Feature","properties":{"type":"Base","label":"TOPSYKRET","z":129},"geometry":{"type":"Point","coordinates":[73,-1855]}},{"type":"Feature","properties":{"type":"Base","label":"GieSarang","z":109},"geometry":{"type":"Point","coordinates":[1390,-2044]}},{"type":"Feature","properties":{"type":"Base","label":"Banana Basin","z":121},"geometry":{"type":"Point","coordinates":[-545,-1544]}},{"type":"Feature","properties":{"type":"Misc","label":"West Elk Corridor Tunnel\nWaypoint 4","z":14},"geometry":{"type":"Point","coordinates":[69,-1611]}},{"type":"Feature","properties":{"type":"Base","label":"Dwarfshire","z":122},"geometry":{"type":"Point","coordinates":[-17046,-1787]}},{"type":"Feature","properties":{"type":"Misc","label":"ARKHOLL city","z":115},"geometry":{"type":"Point","coordinates":[16089,-2164]}},{"type":"Feature","properties":{"type":"Base","label":"Laimfo","z":102},"geometry":{"type":"Point","coordinates":[16036,-2184]}},{"type":"Feature","properties":{"type":"Base","label":"Metalismatic","z":110},"geometry":{"type":"Point","coordinates":[16143,-2138]}},{"type":"Feature","properties":{"type":"Base","label":"Matty's farm","z":111},"geometry":{"type":"Point","coordinates":[-5308,-2007]}},{"type":"Feature","properties":{"type":"Base","label":"B_Wanderts Sommerresidenz","z":111},"geometry":{"type":"Point","coordinates":[-2538,-2051]}},{"type":"Feature","properties":{"type":"Base","label":"Clandestead Winery","z":115},"geometry":{"type":"Point","coordinates":[-4266,-1814]}},{"type":"Feature","properties":{"type":"Base","label":"Pine Peak Retreat","z":132},"geometry":{"type":"Point","coordinates":[-945,-2055]}},{"type":"Feature","properties":{"type":"Base","label":"BearTown\nFirstSpawnOutpost","z":117},"geometry":{"type":"Point","coordinates":[699,-2242]}},{"type":"Feature","properties":{"type":"Base","label":"45°, South of Spawn\n-Aelus","z":103},"geometry":{"type":"Point","coordinates":[0,-2624]}},{"type":"Feature","properties":{"type":"Base","label":"PIE HUT\nPublic cellar & kitchen","z":110},"geometry":{"type":"Point","coordinates":[-5,-2813]}},{"type":"Feature","properties":{"type":"Base","label":"Wist's Northern Base","z":110},"geometry":{"type":"Point","coordinates":[24,-2814]}},{"type":"Feature","properties":{"type":"Base","label":"Golgorot Manor","z":120},"geometry":{"type":"Point","coordinates":[-5291,-2904]}},{"type":"Feature","properties":{"type":"Base","label":"Traveller's Rest","z":112},"geometry":{"type":"Point","coordinates":[-938,-2557]}},{"type":"Feature","properties":{"type":"Base","label":"The Amber Tailor\nBase","z":116},"geometry":{"type":"Point","coordinates":[-228,-2905]}},{"type":"Feature","properties":{"type":"Base","label":"Pale_skin's \nLakeTown","z":112},"geometry":{"type":"Point","coordinates":[1900,-2440]}},{"type":"Feature","properties":{"type":"Base","label":"Vazgen's Vinty Villa","z":127},"geometry":{"type":"Point","coordinates":[3062,-2968]}},{"type":"Feature","properties":{"type":"Base","label":"Syn's Workshop","z":114},"geometry":{"type":"Point","coordinates":[-8239,-3434]}},{"type":"Feature","properties":{"type":"Base","label":"Camp Jubjub\nBase camp for the\nToves of Brillig","z":107},"geometry":{"type":"Point","coordinates":[-149,-3564]}},{"type":"Feature","properties":{"type":"Base","label":"Twonutsheim","z":123},"geometry":{"type":"Point","coordinates":[-19365,-3691]}},{"type":"Feature","properties":{"type":"Base","label":"Divinelight","z":114},"geometry":{"type":"Point","coordinates":[-1619,-4288]}},{"type":"Feature","properties":{"type":"Base","label":"Jinsue Archives Outpost","z":111},"geometry":{"type":"Point","coordinates":[143,-4224]}},{"type":"Feature","properties":{"type":"Base","label":"W1lfl0wer","z":124},"geometry":{"type":"Point","coordinates":[-6267,-3943]}},{"type":"Feature","properties":{"type":"Base","label":"Travelers Rest","z":107},"geometry":{"type":"Point","coordinates":[-460,-4528]}},{"type":"Feature","properties":{"type":"Misc","label":"West Elk Corridor Tunnel\nWaypoint 5","z":89},"geometry":{"type":"Point","coordinates":[1667,-5193]}},{"type":"Feature","properties":{"type":"Base","label":"TERMINUS TELEPORTER","z":111},"geometry":{"type":"Point","coordinates":[-407,-4610]}},{"type":"Feature","properties":{"type":"Base","label":"Sintervale","z":111},"geometry":{"type":"Point","coordinates":[-13903,-5628]}},{"type":"Feature","properties":{"type":"Base","label":"Kovin","z":130},"geometry":{"type":"Point","coordinates":[552,-5822]}},{"type":"Feature","properties":{"type":"Base","label":"Elio Kast's Goat Ranch","z":198},"geometry":{"type":"Point","coordinates":[20454,-5959]}},{"type":"Feature","properties":{"type":"Base","label":"RiverTheSheep","z":121},"geometry":{"type":"Point","coordinates":[4877,-6154]}},{"type":"Feature","properties":{"type":"Base","label":"DANIYOLANDIA","z":110},"geometry":{"type":"Point","coordinates":[2717,-6056]}},{"type":"Feature","properties":{"type":"Base","label":"RAPTOR26'S CORNER","z":129},"geometry":{"type":"Point","coordinates":[2527,-6547]}},{"type":"Feature","properties":{"type":"Base","label":"Sefize's Yellowstone","z":120},"geometry":{"type":"Point","coordinates":[9754,-6023]}},{"type":"Feature","properties":{"type":"Base","label":"Pointer Point by WheresWorm","z":123},"geometry":{"type":"Point","coordinates":[6057,-7110]}},{"type":"Feature","properties":{"type":"Base","label":"Rustford","z":127},"geometry":{"type":"Point","coordinates":[1608,-7293]}},{"type":"Feature","properties":{"type":"Base","label":"New Cabunga","z":119},"geometry":{"type":"Point","coordinates":[-445,-7092]}},{"type":"Feature","properties":{"type":"Base","label":"TRADER TREASURE","z":123},"geometry":{"type":"Point","coordinates":[12317,-7943]}},{"type":"Feature","properties":{"type":"Base","label":"Katk's \nHouse\nkz","z":116},"geometry":{"type":"Point","coordinates":[20796,-8785]}},{"type":"Feature","properties":{"type":"Base","label":"LUXURY TRADER","z":116},"geometry":{"type":"Point","coordinates":[11897,-8459]}},{"type":"Feature","properties":{"type":"Base","label":"Ashix's Base","z":116},"geometry":{"type":"Point","coordinates":[-11005,-9583]}},{"type":"Feature","properties":{"type":"Base","label":"Zaharit`s\nMud\nHomestead","z":113},"geometry":{"type":"Point","coordinates":[-1836,-10137]}},{"type":"Feature","properties":{"type":"Base","label":"Mackaby","z":112},"geometry":{"type":"Point","coordinates":[-8,-10197]}},{"type":"Feature","properties":{"type":"Base","label":"Asiriys Chill House","z":114},"geometry":{"type":"Point","coordinates":[3,-10097]}},{"type":"Feature","properties":{"type":"Base","label":"Mikie420\n\nBase 1","z":111},"geometry":{"type":"Point","coordinates":[-12,-10461]}},{"type":"Feature","properties":{"type":"Base","label":"CJDusty's Farm","z":121},"geometry":{"type":"Point","coordinates":[694,-11049]}},{"type":"Feature","properties":{"type":"Base","label":"Mustardhölme","z":123},"geometry":{"type":"Point","coordinates":[1779,-11797]}},{"type":"Feature","properties":{"type":"Base","label":"BlargbBlitzns Mill\nPart of cool a town :3","z":114},"geometry":{"type":"Point","coordinates":[-4985,-12041]}},{"type":"Feature","properties":{"type":"Base","label":"ZombieHead's\nTool-Shack and Chest-Monster inc.","z":108},"geometry":{"type":"Point","coordinates":[-184,-12110]}},{"type":"Feature","properties":{"type":"Base","label":"toqer's hut","z":117},"geometry":{"type":"Point","coordinates":[-10556,-12324]}},{"type":"Feature","properties":{"type":"Base","label":"XDead_MasterX's First Base","z":118},"geometry":{"type":"Point","coordinates":[2266,-12548]}},{"type":"Feature","properties":{"type":"Base","label":"RICHEST GUY ON THE SERVER","z":123},"geometry":{"type":"Point","coordinates":[2341,-12603]}},{"type":"Feature","properties":{"type":"Base","label":"Reuiop's Base","z":115},"geometry":{"type":"Point","coordinates":[15725,-13051]}},{"type":"Feature","properties":{"type":"Base","label":"Castlegar","z":119},"geometry":{"type":"Point","coordinates":[-7811,-13386]}},{"type":"Feature","properties":{"type":"Base","label":"Hearthholm","z":115},"geometry":{"type":"Point","coordinates":[-27574,-14422]}},{"type":"Feature","properties":{"type":"Base","label":"Lake Milo","z":98},"geometry":{"type":"Point","coordinates":[48235,-14475]}},{"type":"Feature","properties":{"type":"Base","label":"Crooked Creek Ranch","z":112},"geometry":{"type":"Point","coordinates":[-8462,-14882]}},{"type":"Feature","properties":{"type":"Base","label":"Elven Shrine","z":108},"geometry":{"type":"Point","coordinates":[1355,-15112]}},{"type":"Feature","properties":{"type":"Base","label":"ilya2106 hut","z":113},"geometry":{"type":"Point","coordinates":[-3947,-15391]}},{"type":"Feature","properties":{"type":"Base","label":"Trader.Artisian","z":114},"geometry":{"type":"Point","coordinates":[-1430,-15677]}},{"type":"Feature","properties":{"type":"Base","label":"Urshee's Base","z":117},"geometry":{"type":"Point","coordinates":[22387,-16453]}},{"type":"Feature","properties":{"type":"Base","label":"SimRich's Desert Den","z":119},"geometry":{"type":"Point","coordinates":[6268,-16533]}},{"type":"Feature","properties":{"type":"Base","label":"Snowruma, \nFernruma","z":111},"geometry":{"type":"Point","coordinates":[-3238,-16667]}},{"type":"Feature","properties":{"type":"Base","label":"Geezmarsh","z":108},"geometry":{"type":"Point","coordinates":[15551,-17202]}},{"type":"Feature","properties":{"type":"Base","label":"Villa Catellus","z":110},"geometry":{"type":"Point","coordinates":[801,-18208]}},{"type":"Feature","properties":{"type":"Base","label":"Trader.Tailor","z":109},"geometry":{"type":"Point","coordinates":[683,-18652]}},{"type":"Feature","properties":{"type":"Base","label":"Itäkylä","z":116},"geometry":{"type":"Point","coordinates":[-7664,-18899]}},{"type":"Feature","properties":{"type":"Base","label":"The Throughway","z":113},"geometry":{"type":"Point","coordinates":[0,-18770]}},{"type":"Feature","properties":{"type":"Base","label":"Mountebank Lodge","z":134},"geometry":{"type":"Point","coordinates":[-35311,-19398]}},{"type":"Feature","properties":{"type":"Base","label":"Trader.Treassure","z":108},"geometry":{"type":"Point","coordinates":[938,-19366]}},{"type":"Feature","properties":{"type":"Base","label":"Niva-Meadowia\nBenCampbell","z":118},"geometry":{"type":"Point","coordinates":[-10526,-19951]}},{"type":"Feature","properties":{"type":"Base","label":"Darnuria and Aureliaaa domain","z":121},"geometry":{"type":"Point","coordinates":[11924,-20134]}},{"type":"Feature","properties":{"type":"Base","label":"Jebi's Base","z":116},"geometry":{"type":"Point","coordinates":[1484,-20629]}},{"type":"Feature","properties":{"type":"Base","label":"Puglin","z":111},"geometry":{"type":"Point","coordinates":[5418,-20521]}},{"type":"Feature","properties":{"type":"Base","label":"TRADER: BUILDER","z":115},"geometry":{"type":"Point","coordinates":[2561,-20832]}},{"type":"Feature","properties":{"type":"Base","label":"Trader.Tailor","z":168},"geometry":{"type":"Point","coordinates":[9297,-20884]}},{"type":"Feature","properties":{"type":"Misc","label":"Thunderlord\nTemple","z":248},"geometry":{"type":"Point","coordinates":[-3624,-21351]}},{"type":"Feature","properties":{"type":"Base","label":"HoW Town","z":115},"geometry":{"type":"Point","coordinates":[1431,-21071]}},{"type":"Feature","properties":{"type":"Base","label":"Trader.Survival","z":108},"geometry":{"type":"Point","coordinates":[3233,-21400]}},{"type":"Feature","properties":{"type":"Base","label":"MASSAS' Base","z":113},"geometry":{"type":"Point","coordinates":[422,-21874]}},{"type":"Feature","properties":{"type":"Base","label":"Roeheim","z":115},"geometry":{"type":"Point","coordinates":[-21807,-21921]}},{"type":"Feature","properties":{"type":"Base","label":"Trader.Builder","z":131},"geometry":{"type":"Point","coordinates":[8939,-21878]}},{"type":"Feature","properties":{"type":"Base","label":"JKot's home","z":114},"geometry":{"type":"Point","coordinates":[-11135,-23044]}},{"type":"Feature","properties":{"type":"Misc","label":"Poptropica!\n- Tailor Shop","z":111},"geometry":{"type":"Point","coordinates":[24229,-23165]}},{"type":"Feature","properties":{"type":"Misc","label":"Bee Habitat","z":111},"geometry":{"type":"Point","coordinates":[24313,-23160]}},{"type":"Feature","properties":{"type":"Misc","label":"The Kiln","z":116},"geometry":{"type":"Point","coordinates":[24227,-23198]}},{"type":"Feature","properties":{"type":"Misc","label":"Smithy","z":114},"geometry":{"type":"Point","coordinates":[24223,-23228]}},{"type":"Feature","properties":{"type":"Base","label":"Port Silverland:\nPirate Haven","z":114},"geometry":{"type":"Point","coordinates":[24209,-23206]}},{"type":"Feature","properties":{"type":"Misc","label":"First Contact","z":114},"geometry":{"type":"Point","coordinates":[24238,-23223]}},{"type":"Feature","properties":{"type":"Misc","label":"Warehouse","z":113},"geometry":{"type":"Point","coordinates":[24241,-23240]}},{"type":"Feature","properties":{"type":"Misc","label":"Windmill","z":113},"geometry":{"type":"Point","coordinates":[24227,-23247]}},{"type":"Feature","properties":{"type":"Misc","label":"Survival Goods","z":116},"geometry":{"type":"Point","coordinates":[24404,-23047]}},{"type":"Feature","properties":{"type":"Misc","label":"Tomb of\nCurvy Bone Joe","z":123},"geometry":{"type":"Point","coordinates":[24481,-23185]}},{"type":"Feature","properties":{"type":"Base","label":"Poptropica!","z":113},"geometry":{"type":"Point","coordinates":[24393,-23208]}},{"type":"Feature","properties":{"type":"Base","label":"Yensu","z":111},"geometry":{"type":"Point","coordinates":[-12772,-23871]}},{"type":"Feature","properties":{"type":"Base","label":"MrKROT base","z":108},"geometry":{"type":"Point","coordinates":[-3068,-24176]}},{"type":"Feature","properties":{"type":"Base","label":"Whyban & Jekku Farm","z":123},"geometry":{"type":"Point","coordinates":[-249,-24280]}},{"type":"Feature","properties":{"type":"Base","label":"Alice's Home","z":118},"geometry":{"type":"Point","coordinates":[-11029,-24186]}},{"type":"Feature","properties":{"type":"Base","label":"Trader.agriculture","z":109},"geometry":{"type":"Point","coordinates":[3455,-25087]}},{"type":"Feature","properties":{"type":"Base","label":"Trader.Adventure","z":112},"geometry":{"type":"Point","coordinates":[1606,-25152]}},{"type":"Feature","properties":{"type":"Base","label":"Hot Springs House","z":114},"geometry":{"type":"Point","coordinates":[10549,-25555]}},{"type":"Feature","properties":{"type":"Base","label":"Trader.Tailor","z":114},"geometry":{"type":"Point","coordinates":[11820,-25383]}},{"type":"Feature","properties":{"type":"Base","label":"Festfast","z":147},"geometry":{"type":"Point","coordinates":[-3075,-26411]}},{"type":"Feature","properties":{"type":"Base","label":"UWotMateyz","z":133},"geometry":{"type":"Point","coordinates":[8718,-26534]}},{"type":"Feature","properties":{"type":"Base","label":"Buckspot\nSanctuary","z":113},"geometry":{"type":"Point","coordinates":[-162,-26769]}},{"type":"Feature","properties":{"type":"Misc","label":"Commondities trader","z":111},"geometry":{"type":"Point","coordinates":[27052,-26985]}},{"type":"Feature","properties":{"type":"Misc","label":"Farmer trader","z":116},"geometry":{"type":"Point","coordinates":[27686,-26992]}},{"type":"Feature","properties":{"type":"Misc","label":"Bauxite Beach\nBeauxite Zone to \nSouth East","z":109},"geometry":{"type":"Point","coordinates":[26358,-27269]}},{"type":"Feature","properties":{"type":"Misc","label":"Peridot desert","z":115},"geometry":{"type":"Point","coordinates":[27739,-27324]}},{"type":"Feature","properties":{"type":"Base","label":"Hermit's Hill","z":130},"geometry":{"type":"Point","coordinates":[-1349,-27247]}},{"type":"Feature","properties":{"type":"Base","label":"Bear","z":139},"geometry":{"type":"Point","coordinates":[12611,-27083]}},{"type":"Feature","properties":{"type":"Base","label":"Beartown","z":143},"geometry":{"type":"Point","coordinates":[12626,-27087]}},{"type":"Feature","properties":{"type":"Base","label":"Yoma \nWarehouse","z":143},"geometry":{"type":"Point","coordinates":[12826,-27455]}},{"type":"Feature","properties":{"type":"Base","label":"SoCoFam's\nFishing Shack","z":111},"geometry":{"type":"Point","coordinates":[120,-27693]}},{"type":"Feature","properties":{"type":"Misc","label":"Cloth trader","z":114},"geometry":{"type":"Point","coordinates":[27394,-27571]}},{"type":"Feature","properties":{"type":"Misc","label":"Shell Beach","z":113},"geometry":{"type":"Point","coordinates":[24975,-27979]}},{"type":"Feature","properties":{"type":"Misc","label":"Treasure Hunter","z":114},"geometry":{"type":"Point","coordinates":[25574,-28109]}},{"type":"Feature","properties":{"type":"Misc","label":"Artisan trader","z":107},"geometry":{"type":"Point","coordinates":[12787,-27849]}},{"type":"Feature","properties":{"type":"Base","label":"Trader: Artisan","z":108},"geometry":{"type":"Point","coordinates":[12782,-27850]}},{"type":"Feature","properties":{"type":"Base","label":"Trader.Furniture","z":114},"geometry":{"type":"Point","coordinates":[155,-27963]}},{"type":"Feature","properties":{"type":"Misc","label":"Treasure hunter","z":119},"geometry":{"type":"Point","coordinates":[26156,-27866]}},{"type":"Feature","properties":{"type":"Misc","label":"Furniture Trader","z":119},"geometry":{"type":"Point","coordinates":[27958,-28409]}},{"type":"Feature","properties":{"type":"Misc","label":"TheFool \nIsland","z":153},"geometry":{"type":"Point","coordinates":[41154,-28285]}},{"type":"Feature","properties":{"type":"Base","label":"Trader: Survival goods supplier","z":120},"geometry":{"type":"Point","coordinates":[12159,-28207]}},{"type":"Feature","properties":{"type":"Misc","label":"Survival Goods\ntrader","z":121},"geometry":{"type":"Point","coordinates":[12167,-28200]}},{"type":"Feature","properties":{"type":"Base","label":"Pongle","z":112},"geometry":{"type":"Point","coordinates":[-1011,-28544]}},{"type":"Feature","properties":{"type":"Base","label":"Zere","z":129},"geometry":{"type":"Point","coordinates":[0,-28500]}},{"type":"Feature","properties":{"type":"Base","label":"ChasingCoyote's Den\n:3","z":114},"geometry":{"type":"Point","coordinates":[8016,-28450]}},{"type":"Feature","properties":{"type":"Base","label":"The Throughway southern base\n(also RaidenFumo's house)","z":111},"geometry":{"type":"Point","coordinates":[97,-28951]}},{"type":"Feature","properties":{"type":"Base","label":"Tempest Island","z":134},"geometry":{"type":"Point","coordinates":[9337,-29331]}},{"type":"Feature","properties":{"type":"Base","label":"Villa Ardea","z":165},"geometry":{"type":"Point","coordinates":[9240,-29382]}},{"type":"Feature","properties":{"type":"Base","label":"Bongport","z":101},"geometry":{"type":"Point","coordinates":[7482,-30167]}},{"type":"Feature","properties":{"type":"Misc","label":"Bamboo \nIsland","z":153},"geometry":{"type":"Point","coordinates":[41854,-29194]}},{"type":"Feature","properties":{"type":"Misc","label":"Here a rapid","z":144},"geometry":{"type":"Point","coordinates":[41913,-29194]}},{"type":"Feature","properties":{"type":"Misc","label":"HERE A RAPID","z":111},"geometry":{"type":"Point","coordinates":[41906,-29254]}},{"type":"Feature","properties":{"type":"Base","label":"Terminus teleporter Hut","z":137},"geometry":{"type":"Point","coordinates":[10314,-29864]}},{"type":"Feature","properties":{"type":"Misc","label":"LoneBird\nIsland","z":122},"geometry":{"type":"Point","coordinates":[41565,-30588]}},{"type":"Feature","properties":{"type":"Base","label":"Wist's Farm","z":112},"geometry":{"type":"Point","coordinates":[6335,-31374]}},{"type":"Feature","properties":{"type":"Base","label":"Barrio Tabinglawa\n- Reichi_","z":128},"geometry":{"type":"Point","coordinates":[747,-31106]}},{"type":"Feature","properties":{"type":"Base","label":"POI: Reef viewing tunnel & Resort","z":108},"geometry":{"type":"Point","coordinates":[6903,-31735]}},{"type":"Feature","properties":{"type":"Misc","label":"TheTriplet \nIslands","z":113},"geometry":{"type":"Point","coordinates":[40869,-31502]}},{"type":"Feature","properties":{"type":"Base","label":"Future Bikini Bottom","z":110},"geometry":{"type":"Point","coordinates":[8696,-31605]}},{"type":"Feature","properties":{"type":"Base","label":"Wist's Forge","z":154},"geometry":{"type":"Point","coordinates":[6727,-31853]}},{"type":"Feature","properties":{"type":"Misc","label":"Public Bungalow\nwith kitchen","z":102},"geometry":{"type":"Point","coordinates":[6940,-31756]}},{"type":"Feature","properties":{"type":"Base","label":"Hearthholm Fruit Tree Farm","z":116},"geometry":{"type":"Point","coordinates":[-21036,-32062]}},{"type":"Feature","properties":{"type":"Misc","label":"Ocean cactus","z":110},"geometry":{"type":"Point","coordinates":[10541,-31996]}},{"type":"Feature","properties":{"type":"Base","label":"KIRMIZIAN","z":108},"geometry":{"type":"Point","coordinates":[10837,-31757]}},{"type":"Feature","properties":{"type":"Base","label":"Jordhey and Tottem\n\nHome Base","z":112},"geometry":{"type":"Point","coordinates":[17,-32416]}},{"type":"Feature","properties":{"type":"Base","label":"Mountain Říp","z":187},"geometry":{"type":"Point","coordinates":[-397,-32562]}},{"type":"Feature","properties":{"type":"Misc","label":"The Candy Cane","z":132},"geometry":{"type":"Point","coordinates":[7396,-32672]}},{"type":"Feature","properties":{"type":"Misc","label":"Furniture trader","z":113},"geometry":{"type":"Point","coordinates":[3125,-32959]}},{"type":"Feature","properties":{"type":"Misc","label":"LaserGun \nIsland","z":125},"geometry":{"type":"Point","coordinates":[40561,-32668]}},{"type":"Feature","properties":{"type":"Base","label":"BRILLIG","z":113},"geometry":{"type":"Point","coordinates":[7386,-32833]}},{"type":"Feature","properties":{"type":"Base","label":"TRADER:\nSurvival Goods","z":111},"geometry":{"type":"Point","coordinates":[11340,-32999]}},{"type":"Feature","properties":{"type":"Misc","label":"Nicolambus the rancher","z":115},"geometry":{"type":"Point","coordinates":[6078,-33157]}},{"type":"Feature","properties":{"type":"Base","label":"Free Wind Ranch","z":113},"geometry":{"type":"Point","coordinates":[6044,-33184]}},{"type":"Feature","properties":{"type":"Misc","label":"DutAnDrag the tailor","z":114},"geometry":{"type":"Point","coordinates":[6082,-33215]}},{"type":"Feature","properties":{"type":"Misc","label":"Luxury trader","z":110},"geometry":{"type":"Point","coordinates":[8423,-33033]}},{"type":"Feature","properties":{"type":"Base","label":"Township Of Oakvale","z":112},"geometry":{"type":"Point","coordinates":[11213,-33244]}},{"type":"Feature","properties":{"type":"Misc","label":"OakVale\nTranslocator\nStation","z":114},"geometry":{"type":"Point","coordinates":[11208,-33261]}},{"type":"Feature","properties":{"type":"Misc","label":"Artisan trader","z":117},"geometry":{"type":"Point","coordinates":[6581,-34002]}},{"type":"Feature","properties":{"type":"Misc","label":"First Natural Wonder\nThe Hole","z":117},"geometry":{"type":"Point","coordinates":[6633,-34029]}},{"type":"Feature","properties":{"type":"Misc","label":"Luxury trader","z":109},"geometry":{"type":"Point","coordinates":[8473,-33951]}},{"type":"Feature","properties":{"type":"Base","label":"SE Ocean 3 to 4 Canal Entrance","z":118},"geometry":{"type":"Point","coordinates":[43161,-34264]}},{"type":"Feature","properties":{"type":"Base","label":"The Grand Forge of Brillig Bay","z":110},"geometry":{"type":"Point","coordinates":[6999,-34299]}},{"type":"Feature","properties":{"type":"Misc","label":"Survival Goods\ntrader","z":108},"geometry":{"type":"Point","coordinates":[7396,-34429]}},{"type":"Feature","properties":{"type":"Misc","label":"Commondities\ntrader","z":110},"geometry":{"type":"Point","coordinates":[6815,-34574]}},{"type":"Feature","properties":{"type":"Base","label":"Trader.Clothing","z":115},"geometry":{"type":"Point","coordinates":[9010,-34482]}},{"type":"Feature","properties":{"type":"Base","label":"Meteor Falls","z":115},"geometry":{"type":"Point","coordinates":[6952,-35083]}},{"type":"Feature","properties":{"type":"Base","label":"Yegorka's home","z":111},"geometry":{"type":"Point","coordinates":[6697,-35665]}},{"type":"Feature","properties":{"type":"Base","label":"The Hand Of Dust\n\"Dust's Ocean Canal\"","z":117},"geometry":{"type":"Point","coordinates":[43358,-35595]}},{"type":"Feature","properties":{"type":"Base","label":"B_Wanderts\nWinterresidenz","z":113},"geometry":{"type":"Point","coordinates":[1707,-36072]}},{"type":"Feature","properties":{"type":"Base","label":"Walnut Grove","z":115},"geometry":{"type":"Point","coordinates":[-11421,-35939]}},{"type":"Feature","properties":{"type":"Base","label":"Vbread's country house","z":112},"geometry":{"type":"Point","coordinates":[1877,-36668]}},{"type":"Feature","properties":{"type":"Base","label":"SE OCEAN 4 to 3\nCanal Entrance","z":107},"geometry":{"type":"Point","coordinates":[43553,-37730]}},{"type":"Feature","properties":{"type":"Misc","label":"Greenhill Island","z":164},"geometry":{"type":"Point","coordinates":[41758,-37991]}},{"type":"Feature","properties":{"type":"Base","label":"Edel Hill","z":167},"geometry":{"type":"Point","coordinates":[833,-38642]}},{"type":"Feature","properties":{"type":"Base","label":"Yikesberg","z":123},"geometry":{"type":"Point","coordinates":[29,-38219]}},{"type":"Feature","properties":{"type":"Misc","label":"LittleLake Island","z":111},"geometry":{"type":"Point","coordinates":[43746,-38597]}},{"type":"Feature","properties":{"type":"Base","label":"[UNDERLAND]","z":109},"geometry":{"type":"Point","coordinates":[40661,-39499]}},{"type":"Feature","properties":{"type":"Base","label":"Underdog Island\n[UnderLand]","z":164},"geometry":{"type":"Point","coordinates":[40686,-39669]}},{"type":"Feature","properties":{"type":"Base","label":"~Emerald Island~","z":166},"geometry":{"type":"Point","coordinates":[43104,-39504]}},{"type":"Feature","properties":{"type":"Misc","label":"Here a rapid","z":112},"geometry":{"type":"Point","coordinates":[43037,-39607]}},{"type":"Feature","properties":{"type":"Misc","label":"Rabbit Island","z":148},"geometry":{"type":"Point","coordinates":[43667,-39433]}},{"type":"Feature","properties":{"type":"Misc","label":"Dry Island","z":137},"geometry":{"type":"Point","coordinates":[43725,-40148]}},{"type":"Feature","properties":{"type":"Misc","label":"Little Rabbit Island","z":129},"geometry":{"type":"Point","coordinates":[43029,-39811]}},{"type":"Feature","properties":{"type":"Misc","label":"Ocarina Island","z":122},"geometry":{"type":"Point","coordinates":[43697,-40647]}},{"type":"Feature","properties":{"type":"Misc","label":"The Rabbit Ocean","z":107},"geometry":{"type":"Point","coordinates":[41944,-41129]}},{"type":"Feature","properties":{"type":"Misc","label":"ChickenNugget\nIsland","z":110},"geometry":{"type":"Point","coordinates":[40882,-42424]}},{"type":"Feature","properties":{"type":"Misc","label":"Artisant Island","z":116},"geometry":{"type":"Point","coordinates":[41002,-42004]}},{"type":"Feature","properties":{"type":"Misc","label":"BigHead Island","z":160},"geometry":{"type":"Point","coordinates":[41601,-43320]}},{"type":"Feature","properties":{"type":"Base","label":"0° (Equator), South of Spawn\n-Aelus","z":110},"geometry":{"type":"Point","coordinates":[0,-52624]}},{"type":"Feature","properties":{"type":"Base","label":"MOUNT MINGO\nhome of clackmingo","z":201},"geometry":{"type":"Point","coordinates":[-9180,-54421]}},{"type":"Feature","properties":{"type":"Base","label":"dokkk island","z":135},"geometry":{"type":"Point","coordinates":[35379,-62559]}},{"type":"Feature","properties":{"type":"Base","label":"Crushedwinter's\nIsland","z":165},"geometry":{"type":"Point","coordinates":[-74331,-64640]}},{"type":"Feature","properties":{"type":"Base","label":"trops\nlost & found","z":112},"geometry":{"type":"Point","coordinates":[3029,-78336]}},{"type":"Feature","properties":{"type":"Base","label":"Path of Deep Purple","z":114},"geometry":{"type":"Point","coordinates":[-22,-100101]}},{"type":"Feature","properties":{"type":"Base","label":"Soldrom Sea","z":114},"geometry":{"type":"Point","coordinates":[500,-143700]}},{"type":"Feature","properties":{"type":"Base","label":"Nico1ambus on the world edge","z":140},"geometry":{"type":"Point","coordinates":[511996,-239829]}},{"type":"Feature","properties":{"type":"Base","label":"Point South","z":111},"geometry":{"type":"Point","coordinates":[0,-511999]}},{"type":"Feature","properties":{"type":"Base","label":"Point\nSouth-East","z":111},"geometry":{"type":"Point","coordinates":[512002,-511999]}}]}